LANDSAT 9               
1 49260U 21088A   24126.93918124  .00000662  00000+0  15683-3 0  9991
2 49260  98.1888 197.2696 0001314  89.0680 271.0669 14.57110659138546
